NORAD_CAT_ID,OBJECT_NAME,OBJECT_TYPE,EPOCH,MEAN_MOTION,ECCENTRICITY,INCLINATION,RA_OF_ASC_NODE,ARG_OF_PERICENTER,MEAN_ANOMALY,BSTAR,MEAN_MOTION_DOT,MEAN_MOTION_DDOT,TLE_LINE0,TLE_LINE1,TLE_LINE2,SEMIMAJOR_AXIS,PERIOD,APOGEE,PERIGEE,DECAYED
49444.0,STARLINK-3126,PAYLOAD,2024-03-27 22:22:08,15.08858947,0.000124,53.2159,164.3346,77.9964,282.1167,0.00063745,9.877e-05,0.0,0 STARLINK-3126,1 49444U 21104AN  24087.93204331  .00009877  00000-0  63745-3 0  9998,2 49444  53.2159 164.3346 0001240  77.9964 282.1167 15.08858947131465,6917.822,95.436,540.545,538.83,0.0
49444.0,STARLINK-3126,PAYLOAD,2024-03-28 11:05:13,15.08848281,0.0001935,53.2167,161.9557,79.9889,280.1322,0.00011849,1.599e-05,0.0,0 STARLINK-3126,1 49444U 21104AN  24088.46196462  .00001599  00000-0  11849-3 0  9993,2 49444  53.2167 161.9557 0001935  79.9889 280.1322 15.08848281132619,6917.855,95.437,541.059,538.381,0.0
49444.0,STARLINK-3126,PAYLOAD,2024-03-28 22:12:55,15.08850218,0.0001993,53.217,159.8744,76.49,283.6314,0.00024478,3.611e-05,0.0,0 STARLINK-3126,1 49444U 21104AN  24088.92564284  .00003611  00000-0  24478-3 0  9994,2 49444  53.2170 159.8744 0001993  76.4900 283.6314 15.08850218131618,6917.849,95.437,541.093,538.335,0.0
49444.0,STARLINK-3126,PAYLOAD,2024-03-29 10:56:00,15.08853168,0.0001722,53.2165,157.4906,96.0321,264.0868,0.00011991,1.621e-05,0.0,0 STARLINK-3126,1 49444U 21104AN  24089.45555662  .00001621  00000-0  11991-3 0  9998,2 49444  53.2165 157.4906 0001722  96.0321 264.0868 15.08853168131693,6917.84,95.437,540.896,538.514,0.0
49444.0,STARLINK-3126,PAYLOAD,2024-03-29 22:03:42,15.08847744,0.0001464,53.2149,155.4096,100.2043,259.9115,6.5546e-05,7.56e-06,0.0,0 STARLINK-3126,1 49444U 21104AN  24089.91923696  .00000756  00000-0  65546-4 0  9999,2 49444  53.2149 155.4096 0001464 100.2043 259.9115 15.08847744131764,6917.857,95.437,540.734,538.709,0.0
49444.0,STARLINK-3126,PAYLOAD,2024-03-30 04:25:14,15.08839797,0.0001579,53.2151,154.2203,101.3041,258.8129,0.00017028,2.423e-05,0.0,0 STARLINK-3126,1 49444U 21104AN  24090.18420080  .00002423  00000-0  17028-3 0  9993,2 49444  53.2151 154.2203 0001579 101.3041 258.8129 15.08839797132876,6917.881,95.438,540.838,538.654,0.0
49444.0,STARLINK-3126,PAYLOAD,2024-03-30 10:46:47,15.08845174,0.0001717,53.2179,153.0343,85.3511,274.7677,6.3517e-05,7.23e-06,0.0,0 STARLINK-3126,1 49444U 21104AN  24090.44915904  .00000723  00000-0  63517-4 0  9992,2 49444  53.2179 153.0343 0001717  85.3511 274.7677 15.08845174131842,6917.865,95.437,540.917,538.542,0.0
49444.0,STARLINK-3126,PAYLOAD,2024-03-31 10:37:34,15.0884527,0.000143,53.216,148.5724,91.0354,269.0802,9.1095e-05,1.162e-05,0.0,0 STARLINK-3126,1 49444U 21104AN  24091.44275520  .00001162  00000-0  91095-4 0  9996,2 49444  53.2160 148.5724 0001430  91.0354 269.0802 15.08845270133065,6917.864,95.437,540.719,538.74,0.0
49444.0,STARLINK-3126,PAYLOAD,2024-03-31 20:09:53,15.08839515,0.0001427,53.2155,146.7866,87.1644,272.9511,-4.854e-05,-1.06e-05,0.0,0 STARLINK-3126,1 49444U 21104AN  24091.84020125 -.00001060  00000-0 -48540-4 0  9995,2 49444  53.2155 146.7866 0001427  87.1644 272.9511 15.08839515133122,6917.882,95.438,540.734,538.76,0.0
49444.0,STARLINK-3126,PAYLOAD,2024-04-01 10:28:22,15.08830025,0.0001593,53.217,144.1139,85.923,274.1944,7.7229e-06,-1.65e-06,0.0,0 STARLINK-3126,1 49444U 21104AN  24092.43637034 -.00000165  00000-0  77229-5 0  9995,2 49444  53.2170 144.1139 0001593  85.9230 274.1944 15.08830025133216,6917.911,95.438,540.878,538.674,0.0
49444.0,STARLINK-3126,PAYLOAD,2024-04-01 13:39:08,15.08835874,0.000166,53.2159,143.518,92.3767,267.7415,3.7464e-05,3.08e-06,0.0,0 STARLINK-3126,1 49444U 21104AN  24092.56884574  .00000308  00000-0  37464-4 0  9996,2 49444  53.2159 143.5180 0001660  92.3767 267.7415 15.08835874132165,6917.893,95.438,540.906,538.61,0.0
49444.0,STARLINK-3126,PAYLOAD,2024-04-02 03:57:36,15.08842604,0.0001513,53.2153,140.8402,90.3983,269.7183,8.1527e-05,1.01e-05,0.0,0 STARLINK-3126,1 49444U 21104AN  24093.16500226  .00001010  00000-0  81527-4 0  9992,2 49444  53.2153 140.8402 0001513  90.3983 269.7183 15.08842604133323,6917.872,95.437,540.784,538.691,0.0
49444.0,STARLINK-3126,PAYLOAD,2024-04-02 10:19:08,15.08846723,0.0001491,53.2165,139.6531,97.8854,262.2307,0.00012497,1.702e-05,0.0,0 STARLINK-3126,1 49444U 21104AN  24093.42995848  .00001702  00000-0  12497-3 0  9996,2 49444  53.2165 139.6531 0001491  97.8854 262.2307 15.08846723132296,6917.86,95.437,540.756,538.693,0.0
49444.0,STARLINK-3126,PAYLOAD,2024-04-02 19:51:27,15.08844815,0.0001473,53.2163,137.8692,97.5059,262.6101,4.5099e-05,4.3e-06,0.0,0 STARLINK-3126,1 49444U 21104AN  24093.82740080  .00000430  00000-0  45099-4 0  9998,2 49444  53.2163 137.8692 0001473  97.5059 262.6101 15.08844815132359,6917.866,95.437,540.75,538.712,0.0
49444.0,STARLINK-3126,PAYLOAD,2024-04-03 11:45:19,15.08838635,0.0001473,53.2156,134.8938,97.6394,262.4766,8.159e-05,1.011e-05,0.0,0 STARLINK-3126,1 49444U 21104AN  24094.48980664  .00001011  00000-0  81590-4 0  9997,2 49444  53.2156 134.8938 0001473  97.6394 262.4766 15.08838635133522,6917.885,95.438,540.769,538.731,0.0
49444.0,STARLINK-3126,PAYLOAD,2024-04-03 19:42:14,15.08841122,0.0001456,53.2154,133.4065,93.7088,266.407,8.3407e-05,1.04e-05,0.0,0 STARLINK-3126,1 49444U 21104AN  24094.82100500  .00001040  00000-0  83407-4 0  9999,2 49444  53.2154 133.4065 0001456  93.7088 266.4070 15.08841122132508,6917.877,95.437,540.749,538.735,0.0
49444.0,STARLINK-3126,PAYLOAD,2024-04-04 11:36:06,15.08844437,0.0001501,53.2158,130.4339,92.7977,267.3187,1.7292e-05,-1.3e-07,0.0,0 STARLINK-3126,1 49444U 21104AN  24095.48340290 -.00000013  00000-0  17292-4 0  9993,2 49444  53.2158 130.4339 0001501  92.7977 267.3187 15.08844437132602,6917.867,95.437,540.77,538.693,0.0
49444.0,STARLINK-3126,PAYLOAD,2024-04-04 19:33:01,15.0884724,0.0001614,53.217,128.9443,91.3431,268.7746,-9.29e-05,-1.767e-05,0.0,0 STARLINK-3126,1 49444U 21104AN  24095.81460316 -.00001767  00000-0 -92900-4 0  9999,2 49444  53.2170 128.9443 0001614  91.3431 268.7746 15.08847240133724,6917.858,95.437,540.84,538.607,0.0
49444.0,STARLINK-3126,PAYLOAD,2024-04-05 01:54:34,15.0883664,0.0001563,53.2167,127.7544,91.206,268.9111,6.2645e-05,7.09e-06,0.0,0 STARLINK-3126,1 49444U 21104AN  24096.07956626  .00000709  00000-0  62645-4 0  9998,2 49444  53.2167 127.7544 0001563  91.2060 268.9111 15.08836640133763,6917.891,95.438,540.837,538.674,0.0
49444.0,STARLINK-3126,PAYLOAD,2024-04-05 08:16:06,15.08840959,0.0001433,53.2158,126.565,93.0723,267.0434,5.1535e-05,5.32e-06,0.0,0 STARLINK-3126,1 49444U 21104AN  24096.34452378  .00000532  00000-0  51535-4 0  9993,2 49444  53.2158 126.5650 0001433  93.0723 267.0434 15.08840959132732,6917.877,95.437,540.734,538.751,0.0
49444.0,STARLINK-3126,PAYLOAD,2024-04-06 08:06:53,15.0884338,0.0001408,53.2154,122.1041,94.0157,266.0997,7.6569e-05,9.31e-06,0.0,0 STARLINK-3126,1 49444U 21104AN  24097.33812032  .00000931  00000-0  76569-4 0  9997,2 49444  53.2154 122.1041 0001408  94.0157 266.0997 15.08843380133957,6917.87,95.437,540.709,538.761,0.0
49444.0,STARLINK-3126,PAYLOAD,2024-04-07 07:57:41,15.08834666,0.0001536,53.2163,117.6442,98.1507,261.9659,-6.9751e-06,-3.99e-06,0.0,0 STARLINK-3126,1 49444U 21104AN  24098.33172957 -.00000399  00000-0 -69751-5 0  9999,2 49444  53.2163 117.6442 0001536  98.1507 261.9659 15.08834666133032,6917.897,95.438,540.824,538.699,0.0
49444.0,STARLINK-3126,PAYLOAD,2024-04-08 07:48:28,15.08840777,0.0001458,53.2163,113.185,94.9224,265.1935,4.3254e-05,4.01e-06,0.0,0 STARLINK-3126,1 49444U 21104AN  24099.32532570  .00000401  00000-0  43254-4 0  9991,2 49444  53.2163 113.1850 0001458  94.9224 265.1935 15.08840777134257,6917.878,95.438,540.752,538.734,0.0
49444.0,STARLINK-3126,PAYLOAD,2024-04-08 17:20:47,15.08839744,0.0001405,53.2157,111.4004,93.1154,266.9999,5.176e-05,5.36e-06,0.0,0 STARLINK-3126,1 49444U 21104AN  24099.72276633  .00000536  00000-0  51760-4 0  9990,2 49444  53.2157 111.4004 0001405  93.1154 266.9999 15.08839744133246,6917.881,95.438,540.718,538.774,0.0
49444.0,STARLINK-3126,PAYLOAD,2024-04-09 07:39:14,15.08843734,0.0001335,53.2158,108.724,93.1448,266.9697,0.00013032,1.787e-05,0.0,0 STARLINK-3126,1 49444U 21104AN  24100.31892122  .00001787  00000-0  13032-3 0  9993,2 49444  53.2158 108.7240 0001335  93.1448 266.9697 15.08843734133335,6917.869,95.437,540.658,538.81,0.0
49444.0,STARLINK-3126,PAYLOAD,2024-04-09 17:11:33,15.08840183,0.0001323,53.2156,106.94,92.8941,267.2203,7.4483e-05,8.98e-06,0.0,0 STARLINK-3126,1 49444U 21104AN  24100.71636489  .00000898  00000-0  74483-4 0  9999,2 49444  53.2156 106.9400 0001323  92.8941 267.2203 15.08840183134469,6917.88,95.438,540.66,538.83,0.0
49444.0,STARLINK-3126,PAYLOAD,2024-04-10 04:19:16,15.08830363,0.0001419,53.2166,104.8591,94.8139,265.3015,-4.374e-05,-9.84e-06,0.0,0 STARLINK-3126,1 49444U 21104AN  24101.18005607 -.00000984  00000-0 -43740-4 0  9993,2 49444  53.2166 104.8591 0001419  94.8139 265.3015 15.08830363134532,6917.91,95.438,540.756,538.793,0.0
49444.0,STARLINK-3126,PAYLOAD,2024-04-10 09:05:26,15.08832926,0.000143,53.2166,103.9674,95.4172,264.6983,-2.3881e-05,-6.68e-06,0.0,0 STARLINK-3126,1 49444U 21104AN  24101.37877436 -.00000668  00000-0 -23881-4 0  9994,2 49444  53.2166 103.9674 0001430  95.4172 264.6983 15.08832926133498,6917.902,95.438,540.756,538.778,0.0
49444.0,STARLINK-3126,PAYLOAD,2024-04-10 23:23:54,15.08837457,0.000135,53.2165,101.2905,93.2591,266.8556,-3.0414e-05,-7.72e-06,0.0,0 STARLINK-3126,1 49444U 21104AN  24101.97493307 -.00000772  00000-0 -30414-4 0  9997,2 49444  53.2165 101.2905 0001350  93.2591 266.8556 15.08837457133581,6917.888,95.438,540.687,538.819,0.0
49444.0,STARLINK-3126,PAYLOAD,2024-04-11 04:10:03,15.08837975,0.0001487,53.2176,100.3995,99.2893,260.8267,-3.2998e-05,-8.13e-06,0.0,0 STARLINK-3126,1 49444U 21104AN  24102.17365361 -.00000813  00000-0 -32998-4 0  9993,2 49444  53.2176 100.3995 0001487  99.2893 260.8267 15.08837975134684,6917.887,95.438,540.78,538.723,0.0
